STARLINK-30888          
1 58370U 23177V   26068.17736935  .00001205  00000+0  54599-4 0  9999
2 58370  43.0030 353.0914 0002735 264.3440  95.7100 15.26740275128169
FLOCK 4G-7              
1 62624U 25009R   26068.79996108  .00011422  00000+0  43168-3 0  9991
2 62624  97.3984 150.8270 0001396 336.9783  23.1393 15.27141471 63725
